MOLNIYA 2-9             
1 07276U 74026A   22276.92998194  .00000093  00000+0  00000+0 0  9991
2 07276  64.2789 212.1045 6438024 279.9549  17.6987  2.45097402251871
MOLNIYA 2-10            
1 07376U 74056A   22273.81034244 -.00000262  00000+0  00000+0 0  9996
2 07376  64.2461  83.8424 6747506 285.8828  13.6910  2.01065011352470
MOLNIYA 1-S             
1 07392U 74060A   22278.78701769  .00000051  00000+0  00000+0 0  9998
2 07392   4.8439 281.2864 0011494 215.1134 219.0974  1.00210162120635
MOLNIYA 1-29            
1 07780U 75036A   22277.83908470 -.00000054  00000+0 -56253-1 0  9994
2 07780  63.4141 203.1330 6861850 288.3986  12.2673  2.00616170347810
MOLNIYA 2-14            
1 08195U 75081A   22274.07742299  .00000014  00000+0  00000+0 0  9994
2 08195  63.3790 176.7005 6774336 292.6326  11.7562  2.02057429345022
MOLNIYA 1-32            
1 08601U 76006A   22274.00570794 -.00000992  00000+0 -11688-2 0  9990
2 08601  63.4785 283.0056 7219305 283.8949  11.1751  1.99970368 54775
MOLNIYA 1-36            
1 09880U 77021A   22277.93741166 -.00000993  00000+0  00000+0 0  9999
2 09880  63.5074 254.2413 7137718 289.6396  10.2855  2.00874341231567
MOLNIYA 3-8             
1 10455U 77105A   22278.16845563 -.00001036  00000+0  19183-2 0  9998
2 10455  63.4206 341.2027 7360332 282.3537  10.8544  2.00777902329348
MOLNIYA 1-40            
1 10925U 78055A   22278.37013822  .00000067  00000+0  00000+0 0  9990
2 10925  63.4437  32.4849 7268404 280.6905  11.8610  2.00739027324889
MOLNIYA 3-10            
1 11057U 78095A   22278.87235561  .00000208  00000+0  10350-2 0  9991
2 11057  63.2086 358.6240 5788075 311.1460  11.7549  4.09857158388266
MOLNIYA 3-13            
1 11896U 80063A   22276.12488067  .00000127  00000+0  00000+0 0  9995
2 11896  62.7238 123.6252 7118902 276.4279  13.9558  2.00663610309301
MOLNIYA 1-49            
1 12156U 81009A   22275.63097168 -.00001003  00000+0 -11213-2 0  9996
2 12156  61.6942 149.1255 7289660 263.8904  16.8047  2.05709521223691
MOLNIYA 1-52            
1 13012U 81123A   22278.52702069  .00000760  00000+0  14384-1 0  9997
2 13012  61.6713 262.8680 7225619 256.3036  20.5734  2.00385269298850
MOLNIYA 1-53            
1 13070U 82015A   22278.22910178 -.00001213  00000+0 -66981-2 0  9998
2 13070  62.5995 200.7279 7011551 282.9280  12.8125  2.00649242297463
MOLNIYA 3-20            
1 13875U 83015A   22273.29344638  .00001512  00000+0  15626-2 0  9996
2 13875  62.6826 336.1683 7399595 259.0481  17.6524  2.00605224225816
MOLNIYA 1-56            
1 13890U 83019A   22278.22611783 -.00000468  00000+0  67340-3 0  9994
2 13890  62.9227   0.4528 7453368 265.0082  15.0197  1.99857425288808
MOLNIYA 1-63            
1 15429U 84124A   22273.59479181  .00000362  00000+0  00000+0 0  9999
2 15429  63.7604 157.7016 6662475 258.9521 273.7249  2.00862396276863
MOLNIYA 3-24            
1 15738U 85040A   22276.52136944  .00000050  00000+0  65389-3 0  9992
2 15738  63.6492  62.5723 6834641 247.2405  30.5077  2.55627030306637
MOLNIYA 3-27            
1 16393U 85117A   22278.39768317  .00000062  00000+0  00000+0 0  9995
2 16393  64.3684  67.1028 7015245 247.7614  27.9399  2.12396829276516
MOLNIYA 1-69            
1 17078U 86089A   22274.02369881  .00000309  00000+0  00000+0 0  9998
2 17078  63.9867 176.5522 6664360 257.3408  25.9641  2.00677915262949
MOLNIYA 3-31            
1 17328U 87008A   22275.62591296  .00000392  00000+0  00000+0 0  9994
2 17328  63.6947 115.8639 7077055 253.5744  23.6457  2.00648840258017
MOLNIYA 1-71            
1 18946U 88017A   22276.56637353 -.00000254  00000+0  00000+0 0  9999
2 18946  63.3913 109.2937 7190319 256.3456  21.0091  2.00616324253228
MOLNIYA 1-75            
1 19807U 89014A   22274.30098947  .00000002  00000+0  00000+0 0  9994
2 19807  64.0278 273.0151 6829705 266.5483  19.7097  2.00580279246125
MOLNIYA 1-80            
1 21118U 91012A   22273.87137636  .00000926  00000+0  00000+0 0  9998
2 21118  65.1959 321.4811 6773891 276.2824  16.5151  2.05234899233146
MOLNIYA 3-40            
1 21196U 91022A   22274.24419290  .00000545  00000+0  00000+0 0  9993
2 21196  65.1027 315.0763 6802367 273.0996  17.4053  2.03017844231831
MOLNIYA 1-81            
1 21426U 91043A   22278.68915932 -.00000085  00000+0  00000+0 0  9998
2 21426  64.0739 330.0854 7088870 266.4043  17.5661  2.00635071229353
MOLNIYA 3-41            
1 21706U 91065A   22278.01672206  .00000155  00000+0  00000+0 0  9991
2 21706  64.0927 154.0630 6872252 254.8716  25.1344  2.04342400229102
MOLNIYA 3-42            
1 22178U 92067A   22274.04232541  .00000190  00000+0  00000+0 0  9990
2 22178  64.6722 204.8492 6422255 265.3541  24.0951  2.20435384 82383
MOLNIYA 1-86            
1 22671U 93035A   22278.88946794  .00000543  00000+0  78670-3 0  9996
2 22671  63.0756 172.7006 4862990   8.7870 357.3897  5.62729540358512
MOLNIYA 1-87            
1 22949U 93079A   22276.50537105 -.00000614  00000+0  00000+0 0  9999
2 22949  64.0638  79.8582 6891388 283.7303  13.3840  2.02882237 77123
MOLNIYA 1-88            
1 23420U 94081A   22278.21157707  .00000082  00000+0  00000+0 0  9992
2 23420  64.2766 171.5332 5797207 281.0266  22.1983  3.34495503117378
MOLNIYA 3-47            
1 23642U 95042A   22273.74108592 -.00000044  00000+0  00000+0 0  9996
2 23642  64.1754  61.8529 6939134 284.0054  13.0390  2.01922370199141
MOLNIYA 1-90            
1 24960U 97054A   22278.23221073  .00000115  00000+0  10603-3 0  9996
2 24960  63.6578 137.8288 6104752 297.9435  13.9926  3.18687345211503
MOLNIYA 1-91            
1 25485U 98054A   22278.59047700  .00000177  00000+0  22925-2 0  9999
2 25485  63.0544 133.1087 6771099 291.8813 195.5038  2.36442297180988
MOLNIYA 3-50            
1 25847U 99036A   22275.17226846  .00000071  00000+0 -13500-2 0  9996
2 25847  63.2480 318.0167 7362962 282.2716  10.7748  2.00670059170251
